CCSDS_OMM_VERS = 2.0
CREATION_DATE  = 
ORIGINATOR     = 

OBJECT_NAME    = ATLAS CENTAUR 2
OBJECT_ID      = 1963-047A
CENTER_NAME    = EARTH
REF_FRAME      = TEME
TIME_SYSTEM    = UTC
MEAN_ELEMENT_THEORY = SGP/SGP4

EPOCH          = 2026-01-08T04:00:43.748064
MEAN_MOTION    = 14.11880083
ECCENTRICITY   = .0548716
INCLINATION    = 30.3561
RA_OF_ASC_NODE = 173.8238
ARG_OF_PERICENTER = 266.9944
MEAN_ANOMALY   = 86.7762

EPHEMERIS_TYPE = 0
CLASSIFICATION_TYPE = U
NORAD_CAT_ID   = 694
ELEMENT_SET_NO = 999
REV_AT_EPOCH   = 12306
BSTAR          = .17823E-3
MEAN_MOTION_DOT = .1578E-4
MEAN_MOTION_DDOT = 0

CCSDS_OMM_VERS = 2.0
CREATION_DATE  = 
ORIGINATOR     = 

OBJECT_NAME    = THOR AGENA D R/B
OBJECT_ID      = 1964-002A
CENTER_NAME    = EARTH
REF_FRAME      = TEME
TIME_SYSTEM    = UTC
MEAN_ELEMENT_THEORY = SGP/SGP4

EPOCH          = 2026-01-08T00:40:13.017216
MEAN_MOTION    = 14.33978455
ECCENTRICITY   = .003384
INCLINATION    = 99.1220
RA_OF_ASC_NODE = 18.0685
ARG_OF_PERICENTER = 75.5219
MEAN_ANOMALY   = 284.9714

EPHEMERIS_TYPE = 0
CLASSIFICATION_TYPE = U
NORAD_CAT_ID   = 733
ELEMENT_SET_NO = 999
REV_AT_EPOCH   = 22960
BSTAR          = .96279E-4
MEAN_MOTION_DOT = .222E-5
MEAN_MOTION_DDOT = 0

CCSDS_OMM_VERS = 2.0
CREATION_DATE  = 
ORIGINATOR     = 

OBJECT_NAME    = SL-3 R/B
OBJECT_ID      = 1964-053B
CENTER_NAME    = EARTH
REF_FRAME      = TEME
TIME_SYSTEM    = UTC
MEAN_ELEMENT_THEORY = SGP/SGP4

EPOCH          = 2026-01-08T03:01:52.654368
MEAN_MOTION    = 14.61300370
ECCENTRICITY   = .0076109
INCLINATION    = 65.0767
RA_OF_ASC_NODE = 148.7854
ARG_OF_PERICENTER = 311.6419
MEAN_ANOMALY   = 47.8179

EPHEMERIS_TYPE = 0
CLASSIFICATION_TYPE = U
NORAD_CAT_ID   = 877
ELEMENT_SET_NO = 999
REV_AT_EPOCH   = 25794
BSTAR          = .79659E-4
MEAN_MOTION_DOT = .285E-5
MEAN_MOTION_DDOT = 0

CCSDS_OMM_VERS = 2.0
CREATION_DATE  = 
ORIGINATOR     = 

OBJECT_NAME    = SL-8 R/B
OBJECT_ID      = 1967-045B
CENTER_NAME    = EARTH
REF_FRAME      = TEME
TIME_SYSTEM    = UTC
MEAN_ELEMENT_THEORY = SGP/SGP4

EPOCH          = 2026-01-07T22:51:48.254112
MEAN_MOTION    = 14.45567794
ECCENTRICITY   = .0063093
INCLINATION    = 74.0117
RA_OF_ASC_NODE = 101.5167
ARG_OF_PERICENTER = 124.0892
MEAN_ANOMALY   = 236.6275

EPHEMERIS_TYPE = 0
CLASSIFICATION_TYPE = U
NORAD_CAT_ID   = 2802
ELEMENT_SET_NO = 999
REV_AT_EPOCH   = 8024
BSTAR          = .10571E-3
MEAN_MOTION_DOT = .355E-5
MEAN_MOTION_DDOT = 0

CCSDS_OMM_VERS = 2.0
CREATION_DATE  = 
ORIGINATOR     = 

OBJECT_NAME    = SL-8 R/B
OBJECT_ID      = 1968-040B
CENTER_NAME    = EARTH
REF_FRAME      = TEME
TIME_SYSTEM    = UTC
MEAN_ELEMENT_THEORY = SGP/SGP4

EPOCH          = 2026-01-08T03:19:29.427456
MEAN_MOTION    = 15.02756023
ECCENTRICITY   = .0026417
INCLINATION    = 74.0315
RA_OF_ASC_NODE = 77.3729
ARG_OF_PERICENTER = 275.2336
MEAN_ANOMALY   = 84.5838

EPHEMERIS_TYPE = 0
CLASSIFICATION_TYPE = U
NORAD_CAT_ID   = 3230
ELEMENT_SET_NO = 999
REV_AT_EPOCH   = 8091
BSTAR          = .26299E-3
MEAN_MOTION_DOT = .3501E-4
MEAN_MOTION_DDOT = 0

CCSDS_OMM_VERS = 2.0
CREATION_DATE  = 
ORIGINATOR     = 

OBJECT_NAME    = OAO 2
OBJECT_ID      = 1968-110A
CENTER_NAME    = EARTH
REF_FRAME      = TEME
TIME_SYSTEM    = UTC
MEAN_ELEMENT_THEORY = SGP/SGP4

EPOCH          = 2026-01-08T00:05:59.266752
MEAN_MOTION    = 14.47263964
ECCENTRICITY   = .0004832
INCLINATION    = 34.9923
RA_OF_ASC_NODE = 244.0360
ARG_OF_PERICENTER = 68.3588
MEAN_ANOMALY   = 291.7617

EPHEMERIS_TYPE = 0
CLASSIFICATION_TYPE = U
NORAD_CAT_ID   = 3597
ELEMENT_SET_NO = 999
REV_AT_EPOCH   = 1030
BSTAR          = .74347E-4
MEAN_MOTION_DOT = .257E-5
MEAN_MOTION_DDOT = 0

CCSDS_OMM_VERS = 2.0
CREATION_DATE  = 
ORIGINATOR     = 

OBJECT_NAME    = ISIS 1
OBJECT_ID      = 1969-009A
CENTER_NAME    = EARTH
REF_FRAME      = TEME
TIME_SYSTEM    = UTC
MEAN_ELEMENT_THEORY = SGP/SGP4

EPOCH          = 2026-01-07T21:46:08.086656
MEAN_MOTION    = 11.30372953
ECCENTRICITY   = .1707521
INCLINATION    = 88.4514
RA_OF_ASC_NODE = 161.9354
ARG_OF_PERICENTER = 211.8276
MEAN_ANOMALY   = 136.7523

EPHEMERIS_TYPE = 0
CLASSIFICATION_TYPE = U
NORAD_CAT_ID   = 3669
ELEMENT_SET_NO = 999
REV_AT_EPOCH   = 34166
BSTAR          = .26206E-3
MEAN_MOTION_DOT = .37E-5
MEAN_MOTION_DDOT = 0

CCSDS_OMM_VERS = 2.0
CREATION_DATE  = 
ORIGINATOR     = 

OBJECT_NAME    = SERT 2
OBJECT_ID      = 1970-009A
CENTER_NAME    = EARTH
REF_FRAME      = TEME
TIME_SYSTEM    = UTC
MEAN_ELEMENT_THEORY = SGP/SGP4

EPOCH          = 2026-01-08T02:02:41.681760
MEAN_MOTION    = 13.58722037
ECCENTRICITY   = .0004509
INCLINATION    = 99.2684
RA_OF_ASC_NODE = 314.5198
ARG_OF_PERICENTER = 329.5472
MEAN_ANOMALY   = 41.5801

EPHEMERIS_TYPE = 0
CLASSIFICATION_TYPE = U
NORAD_CAT_ID   = 4327
ELEMENT_SET_NO = 999
REV_AT_EPOCH   = 77166
BSTAR          = .10231E-3
MEAN_MOTION_DOT = .33E-6
MEAN_MOTION_DDOT = 0

CCSDS_OMM_VERS = 2.0
CREATION_DATE  = 
ORIGINATOR     = 

OBJECT_NAME    = SL-3 R/B
OBJECT_ID      = 1971-028B
CENTER_NAME    = EARTH
REF_FRAME      = TEME
TIME_SYSTEM    = UTC
MEAN_ELEMENT_THEORY = SGP/SGP4

EPOCH          = 2026-01-08T02:49:40.789344
MEAN_MOTION    = 15.56392431
ECCENTRICITY   = .0018353
INCLINATION    = 81.2383
RA_OF_ASC_NODE = 126.5660
ARG_OF_PERICENTER = 145.9670
MEAN_ANOMALY   = 214.2762

EPHEMERIS_TYPE = 0
CLASSIFICATION_TYPE = U
NORAD_CAT_ID   = 5118
ELEMENT_SET_NO = 999
REV_AT_EPOCH   = 97923
BSTAR          = .45577E-3
MEAN_MOTION_DOT = .32509E-3
MEAN_MOTION_DDOT = 0

CCSDS_OMM_VERS = 2.0
CREATION_DATE  = 
ORIGINATOR     = 

OBJECT_NAME    = ASTEX 1
OBJECT_ID      = 1971-089A
CENTER_NAME    = EARTH
REF_FRAME      = TEME
TIME_SYSTEM    = UTC
MEAN_ELEMENT_THEORY = SGP/SGP4

EPOCH          = 2026-01-08T01:18:56.248416
MEAN_MOTION    = 14.50682628
ECCENTRICITY   = .0013495
INCLINATION    = 92.7155
RA_OF_ASC_NODE = 132.1361
ARG_OF_PERICENTER = 292.4346
MEAN_ANOMALY   = 67.5430

EPHEMERIS_TYPE = 0
CLASSIFICATION_TYPE = U
NORAD_CAT_ID   = 5560
ELEMENT_SET_NO = 999
REV_AT_EPOCH   = 85351
BSTAR          = .16268E-3
MEAN_MOTION_DOT = .638E-5
MEAN_MOTION_DDOT = 0

CCSDS_OMM_VERS = 2.0
CREATION_DATE  = 
ORIGINATOR     = 

OBJECT_NAME    = SL-8 R/B
OBJECT_ID      = 1971-119B
CENTER_NAME    = EARTH
REF_FRAME      = TEME
TIME_SYSTEM    = UTC
MEAN_ELEMENT_THEORY = SGP/SGP4

EPOCH          = 2026-01-08T03:47:53.205216
MEAN_MOTION    = 14.36388839
ECCENTRICITY   = .0556885
INCLINATION    = 73.8893
RA_OF_ASC_NODE = 288.7353
ARG_OF_PERICENTER = 267.6906
MEAN_ANOMALY   = 86.0415

EPHEMERIS_TYPE = 0
CLASSIFICATION_TYPE = U
NORAD_CAT_ID   = 5730
ELEMENT_SET_NO = 999
REV_AT_EPOCH   = 64679
BSTAR          = .41204E-3
MEAN_MOTION_DOT = .7918E-4
MEAN_MOTION_DDOT = 0

CCSDS_OMM_VERS = 2.0
CREATION_DATE  = 
ORIGINATOR     = 

OBJECT_NAME    = OAO 3 (COPERNICUS)
OBJECT_ID      = 1972-065A
CENTER_NAME    = EARTH
REF_FRAME      = TEME
TIME_SYSTEM    = UTC
MEAN_ELEMENT_THEORY = SGP/SGP4

EPOCH          = 2026-01-08T03:50:41.567712
MEAN_MOTION    = 14.59936277
ECCENTRICITY   = .0006268
INCLINATION    = 35.0058
RA_OF_ASC_NODE = 282.1615
ARG_OF_PERICENTER = 19.4924
MEAN_ANOMALY   = 126.1286

EPHEMERIS_TYPE = 0
CLASSIFICATION_TYPE = U
NORAD_CAT_ID   = 6153
ELEMENT_SET_NO = 999
REV_AT_EPOCH   = 83734
BSTAR          = .87043E-4
MEAN_MOTION_DOT = .402E-5
MEAN_MOTION_DDOT = 0

