ATLAS CENTAUR 2         
1 00694U 63047A   26008.16717301  .00001578  00000+0  17823-3 0  9995
2 00694  30.3561 173.8238 0548716 266.9944  86.7762 14.11880083123064
THOR AGENA D R/B        
1 00733U 64002A   26008.02792844  .00000222  00000+0  96279-4 0  9999
2 00733  99.1220  18.0685 0033840  75.5219 284.9714 14.33978455229606
SL-3 R/B                
1 00877U 64053B   26008.12630387  .00000285  00000+0  79659-4 0  9990
2 00877  65.0767 148.7854 0076109 311.6419  47.8179 14.61300370257948
SL-8 R/B                
1 02802U 67045B   26007.95264183  .00000355  00000+0  10571-3 0  9996
2 02802  74.0117 101.5167 0063093 124.0892 236.6275 14.45567794 80249
SL-8 R/B                
1 03230U 68040B   26008.13853504  .00003501  00000+0  26299-3 0  9990
2 03230  74.0315  77.3729 0026417 275.2336  84.5838 15.02756023 80918
OAO 2                   
1 03597U 68110A   26008.00415818  .00000257  00000+0  74347-4 0  9995
2 03597  34.9923 244.0360 0004832  68.3588 291.7617 14.47263964 10303
ISIS 1                  
1 03669U 69009A   26007.90703804  .00000370  00000+0  26206-3 0  9992
2 03669  88.4514 161.9354 1707521 211.8276 136.7523 11.30372953341666
SERT 2                  
1 04327U 70009A   26008.08520465  .00000033  00000+0  10231-3 0  9993
2 04327  99.2684 314.5198 0004509 329.5472  41.5801 13.58722037771661
SL-3 R/B                
1 05118U 71028B   26008.11783321  .00032509  00000+0  45577-3 0  9994
2 05118  81.2383 126.5660 0018353 145.9670 214.2762 15.56392431979233
ASTEX 1                 
1 05560U 71089A   26008.05481769  .00000638  00000+0  16268-3 0  9999
2 05560  92.7155 132.1361 0013495 292.4346  67.5430 14.50682628853515
SL-8 R/B                
1 05730U 71119B   26008.15825469  .00007918  00000+0  41204-3 0  9998
2 05730  73.8893 288.7353 0556885 267.6906  86.0415 14.36388839646793
OAO 3 (COPERNICUS)      
1 06153U 72065A   26008.16020333  .00000402  00000+0  87043-4 0  9990
2 06153  35.0058 282.1615 0006268  19.4924 126.1286 14.59936277837348
